[{"OBJECT_NAME":"STARLINK-32121","OBJECT_ID":"2024-131K","EPOCH":"2026-03-09T06:30:06.932448","MEAN_MOTION":15.3018887,"ECCENTRICITY":0.00014702,"INCLINATION":53.1616,"RA_OF_ASC_NODE":54.4383,"ARG_OF_PERICENTER":85.7966,"MEAN_ANOMALY":274.3203,"EPHEMERIS_TYPE":0,"CLASSIFICATION_TYPE":"U","NORAD_CAT_ID":60264,"ELEMENT_SET_NO":999,"REV_AT_EPOCH":9170,"BSTAR":-4.8616436e-5,"MEAN_MOTION_DOT":-1.798e-5,"MEAN_MOTION_DDOT":0},{"OBJECT_NAME":"OBJECT B","OBJECT_ID":"2024-205B","EPOCH":"2026-03-09T23:46:05.115936","MEAN_MOTION":15.28158697,"ECCENTRICITY":0.00105957,"INCLINATION":97.4192,"RA_OF_ASC_NODE":146.9311,"ARG_OF_PERICENTER":34.0947,"MEAN_ANOMALY":326.0972,"EPHEMERIS_TYPE":0,"CLASSIFICATION_TYPE":"U","NORAD_CAT_ID":61895,"ELEMENT_SET_NO":999,"REV_AT_EPOCH":7352,"BSTAR":0.00054154807,"MEAN_MOTION_DOT":0.00014827,"MEAN_MOTION_DDOT":0}]
